ONEWEB-0020             
1 45133U 20008C   24150.58998653 -.00000629  00000+0 -18388-2 0  9999
2 45133  87.8950 185.0812 0002146  88.6649 271.4724 13.10373665211088
ONEWEB-0021             
1 45134U 20008D   24150.60494374  .00000010  00000+0 -88536-5 0  9992
2 45134  87.8965 185.0916 0002355  97.5187 262.6208 13.10373078211489
ONEWEB-0023             
1 45136U 20008F   24150.54103608  .00000551  00000+0  15411-2 0  9992
2 45136  87.8955 185.0954 0001632  92.7805 267.3509 13.10373815210780
ONEWEB-0024             
1 45137U 20008G   24150.58831950 -.00000638  00000+0 -18651-2 0  9992
2 45137  87.8943 185.0759 0002154  95.3073 264.8300 13.10372230210205
ONEWEB-0025             
1 45138U 20008H   24150.60659699  .00000068  00000+0  15816-3 0  9990
2 45138  87.8946 185.0721 0001954  97.4870 262.6479 13.10374816211287
ONEWEB-0026             
1 45139U 20008J   24150.61094288 -.00000352  00000+0 -10302-2 0  9991
2 45139  87.8965 169.9952 0002094  83.8601 276.2765 13.11414915212997
ONEWEB-0028             
1 45140U 20008K   24150.56601870  .00000184  00000+0  48405-3 0  9995
2 45140  87.8965 170.0453 0001821 110.1129 250.0195 13.11417172210504
